{"type":"FeatureCollection", "features": [
{"type":"Feature","geometry":{"type":"LineString","coordinates":[[79.2131,35.9706],[79.3447,35.8809],[79.4231,35.7901],[79.452,35.7283],[79.5056,35.6499],[79.518,35.588],[79.518,35.5097],[79.5757,35.4437],[79.5633,35.3859],[79.5345,35.353]]},"properties":{"name":"","type":"Road"}},
{"type":"Feature","geometry":{"type":"LineString","coordinates":[[79.5345,35.353],[79.5303,35.3282],[79.5427,35.2416]]},"properties":{"name":"","type":"Road"}},
{"type":"Feature","geometry":{"type":"LineString","coordinates":[[79.6334,35.1014],[79.6293,35.0849]]},"properties":{"name":"","type":"Road"}},
{"type":"Feature","geometry":{"type":"LineString","coordinates":[[79.5427,35.2416],[79.5592,35.2003],[79.6293,35.0849]]},"properties":{"name":"","type":"Road"}},
{"type":"Feature","geometry":{"type":"LineString","coordinates":[[79.6293,35.0849],[79.6417,35.0725]]},"properties":{"name":"","type":"Road"}},
{"type":"Feature","geometry":{"type":"LineString","coordinates":[[79.6293,35.0849],[79.6004,34.9941],[79.5633,34.924],[79.5345,34.8869],[79.4231,34.759],[79.4025,34.7302],[79.3901,34.6642],[79.3942,34.6023],[79.4231,34.5074],[79.4272,34.4786],[79.4602,34.3713]]},"properties":{"name":"","type":"Road"}},
{"type":"Feature","geometry":{"type":"LineString","coordinates":[[74.9192,34.0084],[74.9481,33.9795],[74.9976,33.9465],[75.0718,33.8393],[75.0883,33.7692],[75.1172,33.7156]]},"properties":{"name":"","type":"Road"}},
{"type":"Feature","geometry":{"type":"MultiLineString","coordinates":[[[79.4602,34.3713],[79.5056,34.2476],[79.5133,34.2055]],[[79.4957,34.1494],[79.4848,34.127]]]},"properties":{"name":"","type":"Road"}},
{"type":"Feature","geometry":{"type":"LineString","coordinates":[[75.1172,33.7156],[75.1089,33.6661],[75.1378,33.6083],[75.1667,33.5836],[75.1914,33.5465],[75.1791,33.4557],[75.1956,33.4186],[75.1956,33.3237],[75.1832,33.2784],[75.1914,33.2619],[75.2822,33.1876],[75.3028,33.1794]]},"properties":{"name":"","type":"Road"}},
{"type":"Feature","geometry":{"type":"LineString","coordinates":[[75.3028,33.1794],[75.2987,33.1423],[75.3275,33.1051],[75.2863,33.068],[75.2781,33.0515],[75.2162,33.0185],[75.1832,32.9938],[75.1543,32.9525],[75.1089,32.9154],[75.0471,32.8948],[74.9935,32.9072],[74.9481,32.9443],[74.9522,32.9113],[74.944,32.8659],[74.9275,32.8371],[74.8574,32.7504],[74.845,32.7009]]},"properties":{"name":"","type":"Road"}},
{"type":"Feature","geometry":{"type":"LineString","coordinates":[[74.845,32.7009],[74.7996,32.668],[74.6593,32.5866]]},"properties":{"name":"","type":"Road"}},
{"type":"Feature","geometry":{"type":"LineString","coordinates":[[74.5536,31.614],[74.6264,31.6204],[74.746,31.6451],[74.8079,31.6492],[74.8697,31.6327]]},"properties":{"name":"","type":"Road"}},
{"type":"Feature","geometry":{"type":"LineString","coordinates":[[74.8697,31.6327],[74.9605,31.5997],[75.0388,31.5791],[75.1461,31.5667],[75.2533,31.542],[75.3193,31.5007],[75.3564,31.5049],[75.3935,31.4966],[75.509,31.4471],[75.5296,31.4141],[75.5544,31.3399],[75.608,31.3151]]},"properties":{"name":"","type":"Road"}},
{"type":"Feature","geometry":{"type":"LineString","coordinates":[[74.547,31.0074],[74.5975,30.9604]]},"properties":{"name":"","type":"Road"}},
{"type":"Feature","geometry":{"type":"LineString","coordinates":[[73.9912,30.3707],[74.016,30.4036]]},"properties":{"name":"","type":"Road"}},
{"type":"Feature","geometry":{"type":"LineString","coordinates":[[74.6223,30.9357],[74.6016,30.7996],[74.5604,30.6305],[74.5233,30.5233],[74.515,30.4325],[74.515,30.3459],[74.5027,30.2882],[74.4738,30.2139]]},"properties":{"name":"","type":"Road"}},
{"type":"Feature","geometry":{"type":"LineString","coordinates":[[73.8968,30.3761],[73.9582,30.3665],[73.9912,30.3707]]},"properties":{"name":"","type":"Road"}},
{"type":"Feature","geometry":{"type":"LineString","coordinates":[[74.1892,30.1521],[74.1356,30.2222],[74.0902,30.3005],[74.0737,30.3377],[74.0242,30.4036],[74.016,30.4036]]},"properties":{"name":"","type":"Road"}},
{"type":"Feature","geometry":{"type":"LineString","coordinates":[[74.1892,30.1521],[74.2799,30.1768],[74.3624,30.1892],[74.4738,30.2139],[74.5068,30.1686],[74.5975,30.0613],[74.6841,29.983],[74.713,29.9623],[74.7872,29.8922],[74.8491,29.8139],[74.878,29.7891],[74.9646,29.6489],[75.01,29.5994],[75.0347,29.5581],[75.0512,29.5499]]},"properties":{"name":"","type":"Road"}},
{"type":"Feature","geometry":{"type":"LineString","coordinates":[[75.0512,29.5499],[75.1502,29.5458],[75.3069,29.5251],[75.4265,29.5251],[75.4843,29.5086],[75.5379,29.4468],[75.5626,29.3932],[75.6163,29.356],[75.6369,29.323],[75.6616,29.2447],[75.707,29.1746],[75.7276,29.1581]]},"properties":{"name":"","type":"Road"}},
{"type":"Feature","geometry":{"type":"LineString","coordinates":[[75.7276,29.1581],[75.8266,29.121],[75.8967,29.1045],[75.9545,29.0962],[75.9751,29.1003]]},"properties":{"name":"","type":"Road"}},
{"type":"Feature","geometry":{"type":"LineString","coordinates":[[75.9751,29.1003],[75.9875,29.088],[76.1895,29.0178],[76.3298,28.9601],[76.3793,28.9354],[76.4205,28.9436],[76.4659,28.9189],[76.5442,28.9106],[76.5855,28.8982]]},"properties":{"name":"","type":"Road"}},
{"type":"Feature","geometry":{"type":"LineString","coordinates":[[78.7962,28.824],[78.7756,28.824]]},"properties":{"name":"","type":"Road"}},
{"type":"Feature","geometry":{"type":"LineString","coordinates":[[77.2,28.6631],[77.3155,28.6796],[77.4186,28.6631]]},"properties":{"name":"","type":"Road"}},
{"type":"Feature","geometry":{"type":"LineString","coordinates":[[77.4599,28.6549],[77.5671,28.6796],[77.8517,28.725],[77.9548,28.7333],[78.0662,28.7704],[78.1322,28.758],[78.1981,28.7869],[78.2806,28.8281],[78.3054,28.8322],[78.4002,28.8322],[78.6106,28.8157],[78.7302,28.824],[78.7756,28.824]]},"properties":{"name":"","type":"Road"}},
{"type":"Feature","geometry":{"type":"LineString","coordinates":[[77.4186,28.6631],[77.4599,28.6549]]},"properties":{"name":"","type":"Road"}},
{"type":"Feature","geometry":{"type":"LineString","coordinates":[[77.2,28.6631],[77.2042,28.6425]]},"properties":{"name":"","type":"Road"}},
{"type":"Feature","geometry":{"type":"LineString","coordinates":[[76.5855,28.89],[76.6267,28.8817],[76.734,28.8075],[76.8041,28.7456],[76.8577,28.7374],[76.9237,28.6961],[76.9856,28.6796],[77.0598,28.6673],[77.1712,28.6425],[77.2042,28.6425]]},"properties":{"name":"","type":"Road"}},
{"type":"Feature","geometry":{"type":"LineString","coordinates":[[79.4148,28.3621],[79.3571,28.4363],[79.3117,28.4528],[79.2127,28.5394],[79.1921,28.593],[79.1303,28.6796],[79.1138,28.7126],[79.0478,28.7786],[78.9612,28.8075],[78.9034,28.8034],[78.8292,28.824],[78.7962,28.824]]},"properties":{"name":"","type":"Road"}},
{"type":"Feature","geometry":{"type":"LineString","coordinates":[[77.8723,28.2466],[77.8187,28.2961],[77.7857,28.3332],[77.728,28.4239],[77.6826,28.461],[77.6413,28.5105],[77.5589,28.5559],[77.4599,28.6549]]},"properties":{"name":"","type":"Road"}},
{"type":"Feature","geometry":{"type":"LineString","coordinates":[[73.3066,28.0156],[73.3519,28.0569],[73.4179,28.127],[73.4798,28.1847],[73.4963,28.2136],[73.5705,28.2589],[73.6035,28.3084],[73.7149,28.4239],[73.7561,28.4982],[73.7891,28.5971],[73.8345,28.7044],[73.8304,28.7745],[73.8469,28.8982],[73.8592,28.9312],[73.9005,28.9848],[73.917,29.0343],[73.8881,29.0632],[73.8634,29.121],[73.8634,29.1704],[73.8716,29.2364],[73.8964,29.3189],[73.8799,29.422],[73.8592,29.4757],[73.8221,29.5293],[73.752,29.5581],[73.7479,29.587],[73.7809,29.6365],[73.8428,29.6736],[73.8716,29.7231],[73.9335,29.7809],[73.9871,29.8139],[74.0036,29.8468],[73.9912,29.8592],[73.9211,29.884],[73.8675,29.9335],[73.8922,29.9623],[73.9541,29.983],[73.9747,30.0118],[74.0325,30.0572],[74.1067,30.1067],[74.1892,30.1521]]},"properties":{"name":"","type":"Road"}},
{"type":"Feature","geometry":{"type":"LineString","coordinates":[[78.3755,27.698],[78.3054,27.7764],[78.2394,27.8176],[78.1858,27.8341],[78.0662,27.8795],[77.963,28.028],[77.9507,28.0898],[77.9301,28.1228],[77.9053,28.1888],[77.8723,28.2466]]},"properties":{"name":"","type":"Road"}},
{"type":"Feature","geometry":{"type":"LineString","coordinates":[[77.6826,27.4959],[77.6785,27.4959]]},"properties":{"name":"","type":"Road"}},
{"type":"Feature","geometry":{"type":"LineString","coordinates":[[95.4341,27.5042],[95.4506,27.4794],[95.5001,27.4753],[95.5166,27.4877],[95.5743,27.4671],[95.6032,27.4464],[95.6362,27.3598],[95.6733,27.3103]]},"properties":{"name":"","type":"Road"}},
{"type":"Feature","geometry":{"type":"LineString","coordinates":[[95.6733,27.3103],[95.7723,27.298],[95.8135,27.3268],[95.8383,27.331],[95.8837,27.3722],[95.9043,27.3763]]},"properties":{"name":"","type":"Road"}},
{"type":"Feature","geometry":{"type":"LineString","coordinates":[[73.3066,28.0156],[73.2942,27.9661],[73.2653,27.9207],[73.2571,27.8919],[73.2653,27.8589],[73.3313,27.8094],[73.3561,27.7516],[73.3519,27.6857],[73.3602,27.6692],[73.3973,27.6485],[73.4138,27.6155],[73.4592,27.5702],[73.4881,27.5124],[73.5045,27.4629],[73.5417,27.4134],[73.5458,27.3639],[73.5582,27.3268],[73.6077,27.3021],[73.6448,27.2485],[73.719,27.2031]]},"properties":{"name":"","type":"Road"}},
{"type":"Feature","geometry":{"type":"LineString","coordinates":[[80.9368,26.8649],[80.9285,26.8855],[80.8914,27.0299],[80.8378,27.199],[80.8089,27.3598],[80.7965,27.4134],[80.78,27.4547],[80.7264,27.5207],[80.6439,27.5784],[80.4707,27.6527],[80.3098,27.731],[80.2439,27.7393],[80.1902,27.7558],[80.05,27.8135],[79.9221,27.8795],[79.8355,27.9084],[79.7819,27.9414],[79.7324,27.962],[79.6953,27.995],[79.6376,28.0816],[79.6293,28.1063],[79.5922,28.1641],[79.5427,28.2136],[79.5015,28.2796],[79.4148,28.3621]]},"properties":{"name":"","type":"Road"}},
{"type":"Feature","geometry":{"type":"LineString","coordinates":[[88.3277,26.704],[88.3772,26.7164]]},"properties":{"name":"","type":"Road"}},
{"type":"Feature","geometry":{"type":"LineString","coordinates":[[93.7802,26.6339],[93.8008,26.6463],[93.9039,26.6587],[93.9617,26.704],[93.9906,26.7205],[94.0235,26.7247],[94.1102,26.7164],[94.1432,26.7288],[94.1638,26.7494],[94.2504,26.77],[94.3659,26.803],[94.4195,26.8278],[94.4607,26.8278],[94.502,26.8608],[94.5267,26.9433],[94.6051,26.9515],[94.6546,26.9969],[94.6835,27.0381],[94.6917,27.067],[94.7329,27.1165],[94.7412,27.1619],[94.7577,27.2072],[94.7866,27.2402],[94.7907,27.2815],[94.8072,27.3021],[94.8526,27.331],[94.8979,27.4258],[94.8856,27.4506],[94.8979,27.4794],[94.9309,27.4877],[94.9928,27.4547],[95.0959,27.4547],[95.2691,27.5001],[95.3227,27.4918],[95.3681,27.4918],[95.4341,27.5042]]},"properties":{"name":"","type":"Road"}},
{"type":"Feature","geometry":{"type":"LineString","coordinates":[[84.9333,26.5473],[84.9127,26.6257],[84.8797,26.6752],[84.7972,26.7123],[84.756,26.7412],[84.7518,26.7948],[84.7807,26.8566],[84.8467,26.9309],[84.8728,26.9831]]},"properties":{"name":"","type":"Road"}},
{"type":"Feature","geometry":{"type":"LineString","coordinates":[[90.6168,26.4813],[90.559,26.4731]]},"properties":{"name":"","type":"Road"}},
{"type":"Feature","geometry":{"type":"LineString","coordinates":[[80.3263,26.4566],[80.314,26.4731],[80.2769,26.4813],[80.2397,26.5349],[80.2232,26.5968],[80.1696,26.6545],[80.149,26.6999],[80.1119,26.7412],[80.0789,26.8443],[80.0459,26.8855],[79.9716,27.0051],[79.8974,27.067],[79.8562,27.0876],[79.7819,27.1124],[79.6376,27.1289],[79.4891,27.1577],[79.4643,27.1742],[79.2705,27.232],[79.221,27.2443],[79.1715,27.265],[79.122,27.298],[79.0808,27.3351],[79.0436,27.3598],[78.8993,27.4341],[78.7054,27.5372],[78.6601,27.5578],[78.5528,27.6155],[78.4621,27.6527],[78.3755,27.698]]},"properties":{"name":"","type":"Road"}},
{"type":"Feature","geometry":{"type":"LineString","coordinates":[[80.3428,26.4524],[80.3263,26.4566]]},"properties":{"name":"","type":"Road"}},
{"type":"Feature","geometry":{"type":"LineString","coordinates":[[74.6388,26.4442],[74.6553,26.4772],[74.7048,26.5184],[74.8079,26.5514],[74.8615,26.5803]]},"properties":{"name":"","type":"Road"}},
{"type":"Feature","geometry":{"type":"LineString","coordinates":[[93.7802,26.6339],[93.6688,26.6298],[93.5864,26.638],[93.5369,26.6174],[93.4791,26.6092],[93.3966,26.5886],[93.31,26.5844],[93.1492,26.5679],[93.0873,26.5803],[93.0419,26.5638],[92.9883,26.5886],[92.9471,26.5514],[92.9265,26.5556],[92.8935,26.5432],[92.8728,26.5226],[92.8398,26.5184],[92.8151,26.5308],[92.8027,26.4978],[92.778,26.4896],[92.7491,26.4442],[92.7491,26.3988],[92.7367,26.3741],[92.6996,26.3535]]},"properties":{"name":"","type":"Road"}},
{"type":"Feature","geometry":{"type":"LineString","coordinates":[[74.6388,26.4442],[74.6553,26.4071],[74.7006,26.3782],[74.7254,26.3452],[74.7295,26.3122],[74.7171,26.2833]]},"properties":{"name":"","type":"Road"}},
{"type":"Feature","geometry":{"type":"LineString","coordinates":[[73.719,27.2031],[73.7025,27.1536],[73.6489,27.0876],[73.6283,27.0752],[73.4551,26.9969],[73.3973,26.9598],[73.3891,26.9474],[73.3684,26.869],[73.3354,26.8236],[73.3313,26.7577],[73.2942,26.7164],[73.2282,26.6834],[73.1952,26.6545],[73.1787,26.6216],[73.154,26.5514],[73.1251,26.4978],[73.0839,26.436],[73.0344,26.3411],[73.0302,26.2751]]},"properties":{"name":"","type":"Road"}},
{"type":"Feature","geometry":{"type":"LineString","coordinates":[[91.6726,26.1555],[91.6603,26.1802],[91.6685,26.2009]]},"properties":{"name":"","type":"Road"}},
{"type":"Feature","geometry":{"type":"LineString","coordinates":[[79.8108,26.205],[79.7572,26.1555],[79.753,26.1101]]},"properties":{"name":"","type":"Road"}},
{"type":"Feature","geometry":{"type":"LineString","coordinates":[[74.6388,26.4442],[74.5728,26.3246],[74.515,26.2875],[74.4697,26.2256],[74.3789,26.1431],[74.3212,26.0977]]},"properties":{"name":"","type":"Road"}},
{"type":"Feature","geometry":{"type":"LineString","coordinates":[[74.1191,26.0771],[74.1273,26.0813],[74.2098,26.073],[74.2676,26.0936],[74.3212,26.0977]]},"properties":{"name":"","type":"Road"}},
{"type":"Feature","geometry":{"type":"LineString","coordinates":[[92.9553,25.9534],[93.0213,25.9946],[93.1038,26.0318],[93.1574,26.0441],[93.1822,26.0565],[93.2234,26.04],[93.2729,25.9905],[93.3513,25.9988],[93.4173,25.9864],[93.4255,25.974],[93.4832,25.9575],[93.508,25.9616],[93.5369,25.9823],[93.5616,25.9699],[93.607,25.9864],[93.6482,25.9823],[93.6853,25.9534],[93.7183,25.941],[93.7266,25.9122],[93.7472,25.9039]]},"properties":{"name":"","type":"Road"}},
{"type":"Feature","geometry":{"type":"LineString","coordinates":[[74.7171,26.2833],[74.8244,26.2256],[74.9234,26.1596],[75.01,26.073],[75.0512,26.0359],[75.2286,25.9204],[75.3028,25.8544],[75.3564,25.8379],[75.377,25.8132],[75.3935,25.7595]]},"properties":{"name":"","type":"Road"}},
{"type":"Feature","geometry":{"type":"LineString","coordinates":[[73.3231,25.7554],[73.3231,25.7637],[73.4179,25.7967],[73.521,25.842],[73.6778,25.9163],[73.7396,25.941],[73.8221,25.9823],[73.9376,26.0235],[74.0366,26.0441],[74.1191,26.0771]]},"properties":{"name":"","type":"Road"}},
{"type":"Feature","geometry":{"type":"LineString","coordinates":[[73.0302,26.2751],[73.0344,26.2091],[73.0509,26.1019],[73.088,26.0111],[73.1127,25.974],[73.1622,25.9286],[73.2406,25.8214],[73.3025,25.776],[73.3231,25.7554]]},"properties":{"name":"","type":"Road"}},
{"type":"Feature","geometry":{"type":"LineString","coordinates":[[91.8706,26.0895],[91.8665,26.0771],[91.8665,25.974],[91.8541,25.9493],[91.8747,25.941],[91.8871,25.8833],[91.8871,25.8338],[91.8747,25.7843],[91.8788,25.7266],[91.9077,25.6688],[91.8788,25.5739]]},"properties":{"name":"","type":"Road"}},
{"type":"Feature","geometry":{"type":"LineString","coordinates":[[81.8648,25.4543],[81.8359,25.4502]]},"properties":{"name":"","type":"Road"}},
{"type":"Feature","geometry":{"type":"LineString","coordinates":[[91.8788,25.5739],[91.9655,25.5368],[92.0191,25.5327],[92.0686,25.5451],[92.1634,25.5245],[92.1758,25.508],[92.1841,25.4667],[92.2006,25.4461]]},"properties":{"name":"","type":"Road"}},
{"type":"Feature","geometry":{"type":"LineString","coordinates":[[78.5776,25.4337],[78.5817,25.4543]]},"properties":{"name":"","type":"Road"}},
{"type":"Feature","geometry":{"type":"LineString","coordinates":[[77.6537,25.4131],[77.6785,25.4832],[77.7156,25.508],[77.7403,25.5739],[77.7403,25.6358],[77.7321,25.6771],[77.761,25.7513],[77.7733,25.8008],[77.7692,25.875],[77.7939,25.9286],[77.8104,25.9451],[77.9424,26.0483],[77.9754,26.0606],[78.0373,26.106],[78.095,26.1225],[78.1074,26.1472],[78.1115,26.1844],[78.161,26.2091]]},"properties":{"name":"","type":"Road"}},
{"type":"Feature","geometry":{"type":"LineString","coordinates":[[78.5817,25.4543],[78.5611,25.4502],[78.4662,25.4502],[78.4415,25.4626],[78.3384,25.4667],[78.2188,25.4461],[78.1693,25.4461],[78.1115,25.4378],[78.0579,25.4213],[77.8971,25.3966],[77.8434,25.4007],[77.8063,25.4131],[77.7445,25.409],[77.7197,25.4172],[77.6537,25.4131]]},"properties":{"name":"","type":"Road"}},
{"type":"Feature","geometry":{"type":"LineString","coordinates":[[95.9043,27.3763],[96.0239,27.3474],[96.0569,27.3227],[96.0486,27.298],[96.1188,27.2897],[96.1394,27.2567],[96.1642,27.2441]]},"properties":{"name":"","type":"Road"}},
{"type":"Feature","geometry":{"type":"LineString","coordinates":[[87.8328,25.8709],[87.8163,25.8462],[87.7668,25.8585],[87.7091,25.8503],[87.6596,25.8173],[87.6266,25.8049],[87.54,25.7925],[87.4946,25.7802],[87.4781,25.7595],[87.4575,25.7059],[87.4162,25.6523],[87.3997,25.5739],[87.3915,25.5575],[87.2719,25.4873],[87.2554,25.4585],[87.2554,25.4337],[87.2306,25.4007],[87.2059,25.3883],[87.1729,25.3883],[87.1151,25.3677],[87.0656,25.3636],[86.9914,25.3719],[86.9708,25.3801],[86.9667,25.4048],[86.9089,25.4048],[86.7481,25.4131],[86.7068,25.4255],[86.5872,25.5121],[86.5089,25.5121],[86.48,25.4997],[86.447,25.4667],[86.4305,25.4213],[86.3934,25.4007],[86.3109,25.409],[86.1995,25.3966],[86.1377,25.4048],[86.0593,25.4502],[85.9356,25.4915],[85.8943,25.541],[85.8572,25.6069],[85.7912,25.6894],[85.7417,25.7802],[85.6304,25.8874],[85.552,25.9699],[85.4695,26.0153],[85.3829,26.0854]]},"properties":{"name":"","type":"Road"}},
{"type":"Feature","geometry":{"type":"LineString","coordinates":[[75.3935,25.7595],[75.443,25.7059],[75.4472,25.6688],[75.4843,25.5987],[75.5131,25.5698],[75.5338,25.5327],[75.5709,25.4832],[75.5998,25.4585],[75.6492,25.4296],[75.674,25.376],[75.7194,25.3306],[75.773,25.2646],[75.8266,25.2069],[75.839,25.1739]]},"properties":{"name":"","type":"Road"}},
{"type":"Feature","geometry":{"type":"LineString","coordinates":[[92.2006,25.4461],[92.2542,25.4502],[92.316,25.442],[92.316,25.3925],[92.3738,25.3389],[92.3862,25.2935],[92.3862,25.1904],[92.3944,25.1574],[92.3862,25.1285],[92.3614,25.0955],[92.3697,25.0749],[92.4027,25.0584],[92.4645,25.0172],[92.4893,24.9842],[92.5718,24.9594]]},"properties":{"name":"","type":"Road"}},
{"type":"Feature","geometry":{"type":"LineString","coordinates":[[85.3829,26.0854],[85.3086,25.9616],[85.2798,25.8214],[85.2798,25.776],[85.2427,25.6977],[85.2509,25.6647],[85.2262,25.6111],[85.2055,25.5863],[85.1478,25.5739],[85.0488,25.5904],[85.0076,25.5904],[84.9663,25.5781],[84.8426,25.5575],[84.8096,25.5616],[84.756,25.5822],[84.7065,25.5698],[84.6735,25.5533],[84.6322,25.508],[84.5827,25.4255],[84.4384,25.3347],[84.4136,25.3265],[84.3848,25.2894],[84.3188,25.2399],[84.2775,25.2234],[84.228,25.1739],[84.1456,25.1038],[84.0507,25.0336],[84.0218,24.9883],[84.0095,24.9553]]},"properties":{"name":"","type":"Road"}},
{"type":"Feature","geometry":{"type":"LineString","coordinates":[[93.7472,25.9039],[93.7843,25.809],[93.805,25.7925],[93.8132,25.7678],[93.8544,25.7554],[93.9328,25.7719],[93.9493,25.7554],[94.0318,25.7142],[94.0607,25.6688],[94.0937,25.6647],[94.1102,25.6152],[94.139,25.5575],[94.1308,25.5368],[94.1308,25.4873],[94.139,25.4585],[94.1102,25.4296],[94.1019,25.4048],[94.04,25.2811],[94.0112,25.2399],[93.9576,25.1161],[93.9411,25.0914],[93.9122,25.013],[93.8792,24.9512],[93.8833,24.8975],[93.9328,24.848],[93.9328,24.7862]]},"properties":{"name":"","type":"Road"}},
{"type":"Feature","geometry":{"type":"LineString","coordinates":[[72.9106,24.6625],[72.9478,24.7078],[73.0426,24.7821],[73.0426,24.7986],[72.9313,24.8604],[72.8364,24.8934],[72.857,24.9388],[72.8818,24.9677],[72.9642,25.0501],[73.0302,25.1038],[73.0839,25.1656],[73.1251,25.2316],[73.1911,25.3719],[73.2365,25.4915],[73.3025,25.6152],[73.3231,25.6936],[73.3231,25.7554]]},"properties":{"name":"","type":"Road"}},
{"type":"Feature","geometry":{"type":"LineString","coordinates":[[77.3114,24.646],[77.3733,24.7491],[77.431,24.8151],[77.5424,24.9223],[77.5589,24.9429],[77.5795,25.013],[77.6042,25.1244],[77.6083,25.2027],[77.629,25.2729],[77.6413,25.3636],[77.6537,25.4131]]},"properties":{"name":"","type":"Road"}},
{"type":"Feature","geometry":{"type":"LineString","coordinates":[[82.5618,25.2646],[82.537,25.2192],[82.5659,25.1285],[82.5288,25.1079],[82.4999,25.079],[82.438,25.046],[82.4092,25.0213],[82.3597,25.0048],[82.3143,24.9677],[82.2153,24.9099],[82.1535,24.8522],[82.1246,24.8439],[82.1163,24.7986],[82.0833,24.7614],[82.0504,24.7449],[82.005,24.6996],[81.9555,24.6954],[81.9142,24.6748],[81.8813,24.6666],[81.7493,24.6789],[81.6709,24.6748],[81.5884,24.6583],[81.5513,24.6418]]},"properties":{"name":"","type":"Road"}},
{"type":"Feature","geometry":{"type":"LineString","coordinates":[[75.839,25.1739],[75.8307,25.1574],[75.8761,25.046],[75.9462,24.914],[75.9792,24.8233],[75.9668,24.8068],[75.9916,24.7697],[76.0122,24.6831],[76.0328,24.646],[76.0617,24.6253],[76.1566,24.5841],[76.1689,24.547]]},"properties":{"name":"","type":"Road"}},
{"type":"Feature","geometry":{"type":"LineString","coordinates":[[81.5513,24.6418],[81.5142,24.6253],[81.4688,24.5841],[81.4193,24.5593],[81.3203,24.5346],[81.2543,24.5263],[81.1966,24.4892],[81.1677,24.481]]},"properties":{"name":"","type":"Road"}},
{"type":"Feature","geometry":{"type":"LineString","coordinates":[[93.9328,24.7862],[93.9452,24.6872],[93.9617,24.6666],[94.0071,24.6336],[94.0277,24.5882],[94.0235,24.547],[94.0112,24.5098],[94.0194,24.4604],[94.0607,24.4274],[94.0895,24.4315],[94.1143,24.4026],[94.2256,24.3366],[94.2751,24.2913],[94.2974,24.2414]]},"properties":{"name":"","type":"Road"}},
{"type":"Feature","geometry":{"type":"LineString","coordinates":[[72.4198,24.1716],[72.4817,24.1551],[72.5229,24.1634],[72.5683,24.2088],[72.6302,24.2541],[72.6549,24.2871],[72.6714,24.3366],[72.6714,24.3696],[72.7663,24.4686],[72.7951,24.5346],[72.8446,24.5758],[72.8818,24.6336],[72.9106,24.6625]]},"properties":{"name":"","type":"Road"}},
{"type":"Feature","geometry":{"type":"LineString","coordinates":[[77.3114,24.646],[77.2701,24.6047],[77.2372,24.5635],[77.2042,24.5346],[77.1959,24.4686],[77.1712,24.4191],[77.1134,24.3366],[77.0639,24.2459],[77.0103,24.1222],[76.9732,24.0438],[76.9608,23.9902],[76.9319,23.9283],[76.8989,23.8912]]},"properties":{"name":"","type":"Road"}},
{"type":"Feature","geometry":{"type":"LineString","coordinates":[[72.3456,23.8788],[72.3497,23.9819],[72.3745,24.0438],[72.391,24.1098],[72.4198,24.1716]]},"properties":{"name":"","type":"Road"}},
{"type":"Feature","geometry":{"type":"LineString","coordinates":[[91.2726,23.8376],[91.3179,23.8334],[91.3509,23.8417],[91.388,23.8211],[91.4582,23.8252],[91.5077,23.8128],[91.5406,23.8169],[91.5654,23.8087],[91.6273,23.8252],[91.6314,23.8417],[91.6933,23.8458],[91.718,23.8623],[91.8376,23.8706],[91.8582,23.8994],[91.916,23.9118],[91.9572,23.9366],[91.9572,23.9572],[92.0067,24.0108],[92.0191,24.0562],[92.0067,24.1222],[92.0273,24.1428],[92.0974,24.1675],[92.1263,24.2005],[92.1593,24.217],[92.1964,24.2665],[92.2047,24.3078],[92.2418,24.3242],[92.25,24.3614],[92.25,24.4232],[92.2665,24.4975],[92.2665,24.5305],[92.316,24.5676],[92.3284,24.6295],[92.3532,24.6954],[92.3573,24.7449],[92.3738,24.7903],[92.3779,24.8439],[92.4109,24.8316],[92.4356,24.8357],[92.4769,24.8563],[92.5553,24.8563],[92.58,24.8852],[92.5883,24.9223],[92.5718,24.9594]]},"properties":{"name":"","type":"Road"}},
{"type":"Feature","geometry":{"type":"LineString","coordinates":[[91.2459,23.833],[91.2726,23.8376]]},"properties":{"name":"","type":"Road"}},
{"type":"Feature","geometry":{"type":"LineString","coordinates":[[76.1689,24.547],[76.1689,24.514],[76.1813,24.4439],[76.1524,24.3449],[76.1483,24.2789],[76.1648,24.2211],[76.1648,24.1881],[76.1442,24.0892],[76.1359,24.0025],[76.1029,23.953],[76.0988,23.9201],[76.1071,23.8788],[76.0741,23.8046],[76.0163,23.718]]},"properties":{"name":"","type":"Road"}},
{"type":"Feature","geometry":{"type":"LineString","coordinates":[[76.8989,23.8912],[76.7587,23.7303],[76.6804,23.6891],[76.5896,23.6313],[76.5278,23.6066],[76.47,23.5695]]},"properties":{"name":"","type":"Road"}},
{"type":"Feature","geometry":{"type":"LineString","coordinates":[[87.8328,25.8709],[87.8947,25.8627],[87.9318,25.8462],[87.9277,25.7884],[87.9689,25.7513],[88.0143,25.7348],[88.0514,25.6977],[88.0844,25.6812],[88.0968,25.6523],[88.1297,25.6234],[88.1462,25.5575],[88.1792,25.4915],[88.1834,25.4585],[88.171,25.3389],[88.171,25.2399],[88.1834,25.2069],[88.1834,25.178],[88.1504,25.1244],[88.1462,25.0749],[88.1339,25.0378],[88.1462,24.9965],[88.1421,24.9718],[88.1215,24.9305],[88.0803,24.8893],[88.0019,24.8439],[87.9895,24.8151],[87.9318,24.8068],[87.9194,24.7821],[87.9277,24.6954],[87.9442,24.6542],[87.9689,24.6253],[88.0143,24.5923],[88.0431,24.481],[88.072,24.415],[88.0308,24.3242],[88.039,24.2995],[88.0968,24.2418],[88.171,24.1799],[88.2287,24.1263],[88.2576,24.0933],[88.2865,24.0933],[88.2535,24.0397],[88.2535,23.9902],[88.2411,23.9077],[88.2494,23.8541],[88.2659,23.7881],[88.2906,23.7592],[88.303,23.7015],[88.3153,23.6726],[88.3525,23.6313],[88.3896,23.6107],[88.4267,23.5654],[88.4473,23.5241]]},"properties":{"name":"","type":"Road"}},
{"type":"Feature","geometry":{"type":"LineString","coordinates":[[85.4241,24.3036],[85.4118,24.2789],[85.4118,24.2335],[85.387,24.1634],[85.387,24.1222],[85.3953,24.0685],[85.3746,23.9819],[85.3829,23.9448],[85.4406,23.8747],[85.453,23.8293],[85.4901,23.7757],[85.519,23.7138],[85.5355,23.5901],[85.5107,23.5447],[85.5066,23.5159],[85.4736,23.4787],[85.4489,23.4622],[85.4076,23.4169],[85.3416,23.3715]]},"properties":{"name":"","type":"Road"}},
{"type":"Feature","geometry":{"type":"LineString","coordinates":[[72.4776,23.2272],[72.4404,23.2684],[72.4281,23.3426],[72.3951,23.4169],[72.3951,23.4664],[72.3538,23.5241],[72.3662,23.6396],[72.3538,23.7386],[72.3456,23.8788]]},"properties":{"name":"","type":"Road"}},
{"type":"Feature","geometry":{"type":"LineString","coordinates":[[81.1677,24.481],[81.1471,24.4645],[81.0234,24.3366],[80.9161,24.2748],[80.8625,24.2789],[80.7553,24.2459],[80.7017,24.1923],[80.6233,24.1469],[80.5697,24.1222],[80.5532,24.1015],[80.4913,24.0562],[80.4047,23.9778],[80.4047,23.9324],[80.3923,23.8458],[80.3511,23.7881],[80.3263,23.7262],[80.2604,23.6437],[80.1861,23.5777],[80.1119,23.5035],[80.0871,23.4705],[80.083,23.4375],[80.0253,23.3715],[80.0211,23.3426],[79.9799,23.289],[79.9386,23.19],[79.9469,23.1694]]},"properties":{"name":"","type":"Road"}},
{"type":"Feature","geometry":{"type":"LineString","coordinates":[[72.5889,23.0333],[72.5683,23.1488],[72.5477,23.1818],[72.4776,23.2272]]},"properties":{"name":"","type":"Road"}},
{"type":"Feature","geometry":{"type":"LineString","coordinates":[[76.47,23.5695],[76.4411,23.5406],[76.404,23.5159],[76.338,23.4622],[76.2679,23.4169],[76.1566,23.3055],[76.1401,23.2725],[76.1401,23.2272],[76.1566,23.1612],[76.1483,23.0952],[76.1277,23.0539],[76.1194,23.0209],[76.0452,22.9673],[75.9833,22.9137],[75.9627,22.8848],[75.9421,22.8353],[75.8843,22.7528],[75.8555,22.724]]},"properties":{"name":"","type":"Road"}},
{"type":"Feature","geometry":{"type":"LineString","coordinates":[[76.0163,23.718],[75.9916,23.7056],[75.9875,23.6767],[75.9421,23.5983],[75.8926,23.5406],[75.9008,23.5076],[75.8348,23.355],[75.7771,23.2065],[75.7812,23.1694],[75.8183,23.0787],[75.8266,22.9962],[75.8431,22.9508],[75.8348,22.8147],[75.8513,22.7611],[75.8555,22.724]]},"properties":{"name":"","type":"Road"}},
{"type":"Feature","geometry":{"type":"LineString","coordinates":[[88.8766,23.0516],[88.8474,23.0581],[88.802,23.0086],[88.7855,22.9756],[88.7113,22.9013],[88.67,22.8477],[88.6288,22.8065],[88.5463,22.7446],[88.4762,22.7075]]},"properties":{"name":"","type":"Road"}},
{"type":"Feature","geometry":{"type":"LineString","coordinates":[[88.4473,23.5241],[88.4597,23.454],[88.4721,23.4292],[88.4968,23.4086],[88.4391,23.2973],[88.4473,23.2766],[88.4391,23.2478],[88.5174,23.223],[88.5711,23.1777],[88.5752,23.1405],[88.5504,23.0952],[88.5381,23.0127],[88.5504,22.9962],[88.5587,22.9261],[88.5546,22.9013],[88.5174,22.8023],[88.4762,22.7075]]},"properties":{"name":"","type":"Road"}},
{"type":"Feature","geometry":{"type":"LineString","coordinates":[[72.8446,22.7033],[72.6838,22.7075],[72.6838,22.7405],[72.6425,22.7776],[72.6013,22.8518],[72.5931,22.8931],[72.5889,23.0333]]},"properties":{"name":"","type":"Road"}},
{"type":"Feature","geometry":{"type":"LineString","coordinates":[[79.9469,23.1694],[79.9304,23.1117],[79.8892,23.0003],[79.8397,22.9219],[79.819,22.8807],[79.7778,22.8477],[79.7201,22.7405],[79.6623,22.6415],[79.6128,22.5961]]},"properties":{"name":"","type":"Road"}},
{"type":"Feature","geometry":{"type":"LineString","coordinates":[[88.4762,22.7075],[88.4515,22.658],[88.4308,22.6374],[88.3772,22.6044],[88.3648,22.5879]]},"properties":{"name":"","type":"Road"}},
{"type":"Feature","geometry":{"type":"LineString","coordinates":[[88.3277,22.6002],[88.3648,22.5879]]},"properties":{"name":"","type":"Road"}},
{"type":"Feature","geometry":{"type":"LineString","coordinates":[[85.3416,23.3715],[85.3334,23.3674],[85.321,23.2684],[85.3045,23.2272],[85.2715,23.1653],[85.2921,23.0127],[85.2921,22.9673],[85.2756,22.9384],[85.2839,22.9096],[85.3169,22.8889],[85.3664,22.8271],[85.3623,22.7858],[85.4035,22.7735],[85.4406,22.7776],[85.4654,22.7693],[85.4984,22.7281],[85.519,22.7198],[85.5809,22.7116],[85.6221,22.6786],[85.6757,22.6662],[85.7376,22.6291],[85.7665,22.6044],[85.8118,22.5507]]},"properties":{"name":"","type":"Road"}},
{"type":"Feature","geometry":{"type":"LineString","coordinates":[[71.0753,22.4229],[71.1289,22.4146],[71.2072,22.4394],[71.3021,22.5013],[71.3434,22.5178],[71.4918,22.5342],[71.7063,22.5631],[71.8548,22.5755],[72.0239,22.6002],[72.1476,22.6209],[72.2012,22.658],[72.2384,22.7198],[72.292,22.7611],[72.3208,22.79],[72.3662,22.8477],[72.4363,22.9219],[72.4652,22.9673],[72.5023,22.9921],[72.5889,23.0333]]},"properties":{"name":"","type":"Road"}},
{"type":"Feature","geometry":{"type":"LineString","coordinates":[[73.1746,22.3074],[73.1705,22.3486],[73.1251,22.3858],[73.1045,22.427],[73.0632,22.46],[72.9766,22.5631],[72.8818,22.6539],[72.8446,22.7033]]},"properties":{"name":"","type":"Road"}},
{"type":"Feature","geometry":{"type":"LineString","coordinates":[[75.8555,22.724],[75.839,22.6704],[75.7689,22.5507],[75.7524,22.5384],[75.6864,22.5136],[75.641,22.4765],[75.608,22.4353],[75.5668,22.3981],[75.5131,22.3651],[75.4925,22.3033]]},"properties":{"name":"","type":"Road"}},
{"type":"Feature","geometry":{"type":"LineString","coordinates":[[86.645,22.229],[86.6367,22.229],[86.5625,22.1631],[86.5418,22.1589],[86.4841,22.1795],[86.414,22.1589],[86.2573,22.0929],[86.2036,22.0599],[86.1418,21.9981],[86.0923,21.9733]]},"properties":{"name":"","type":"Road"}},
{"type":"Feature","geometry":{"type":"LineString","coordinates":[[75.4925,22.3033],[75.443,22.2167],[75.4224,22.1301],[75.41,22.1012],[75.377,22.0764],[75.3399,22.0352],[75.2781,21.9857],[75.2368,21.9362],[75.2079,21.8908],[75.2079,21.8743]]},"properties":{"name":"","type":"Road"}},
{"type":"Feature","geometry":{"type":"LineString","coordinates":[[86.0923,21.9733],[86.0799,21.9692],[85.9686,21.8826],[85.8984,21.8331],[85.7417,21.73],[85.618,21.6392]]},"properties":{"name":"","type":"Road"}},
{"type":"Feature","geometry":{"type":"LineString","coordinates":[[85.8118,22.5507],[85.8159,22.5054],[85.7953,22.4476],[85.783,22.4311],[85.7541,22.3569],[85.7541,22.3115],[85.7417,22.2579],[85.7417,22.2043],[85.7293,22.1507],[85.7046,22.1301],[85.651,22.0434],[85.6304,21.9981],[85.5974,21.9073],[85.5767,21.8785],[85.585,21.8166],[85.5809,21.7795],[85.5932,21.7052],[85.5932,21.6722],[85.618,21.6392]]},"properties":{"name":"","type":"Road"}},
{"type":"Feature","geometry":{"type":"LineString","coordinates":[[85.618,21.6392],[85.5809,21.6145]]},"properties":{"name":"","type":"Road"}},
{"type":"Feature","geometry":{"type":"LineString","coordinates":[[85.0199,21.5485],[84.9416,21.5568],[84.888,21.5526],[84.8426,21.5238],[84.7683,21.5403],[84.6281,21.5526],[84.5951,21.5444],[84.5539,21.5155],[84.492,21.5403],[84.393,21.5361],[84.3353,21.499],[84.2734,21.4949],[84.2487,21.4701],[84.1456,21.4537],[84.1084,21.4578],[84.0053,21.4537]]},"properties":{"name":"","type":"Road"}},
{"type":"Feature","geometry":{"type":"LineString","coordinates":[[85.5809,21.6145],[85.5025,21.5609],[85.3829,21.4866],[85.3293,21.466],[85.2468,21.4537],[85.1973,21.4289]]},"properties":{"name":"","type":"Road"}},
{"type":"Feature","geometry":{"type":"LineString","coordinates":[[85.1973,21.4289],[85.156,21.4578],[85.1189,21.4701],[85.0818,21.4949],[85.0364,21.5403],[85.0199,21.5485]]},"properties":{"name":"","type":"Road"}},
{"type":"Feature","geometry":{"type":"LineString","coordinates":[[84.0053,21.4537],[83.9517,21.4908],[83.9187,21.4784],[83.9063,21.4289],[83.8651,21.4042],[83.7991,21.3753],[83.7125,21.3464],[83.6465,21.3464],[83.6135,21.3382]]},"properties":{"name":"","type":"Road"}},
{"type":"Feature","geometry":{"type":"LineString","coordinates":[[83.6135,21.3382],[83.6011,21.3382]]},"properties":{"name":"","type":"Road"}},
{"type":"Feature","geometry":{"type":"LineString","coordinates":[[75.2079,21.8743],[75.1749,21.8248],[75.1626,21.7795],[75.1213,21.7424],[75.0801,21.697],[75.043,21.6228],[75.0347,21.5444],[74.9893,21.4949],[74.9728,21.4619],[74.9687,21.4124],[74.944,21.367],[74.8904,21.3299],[74.845,21.2763],[74.8326,21.2516]]},"properties":{"name":"","type":"Road"}},
{"type":"Feature","geometry":{"type":"LineString","coordinates":[[81.6503,21.2474],[81.6255,21.2392]]},"properties":{"name":"","type":"Road"}},
{"type":"Feature","geometry":{"type":"LineString","coordinates":[[83.6011,21.3382],[83.5764,21.3423],[83.5351,21.3258],[83.4857,21.3258],[83.4155,21.3093],[83.3454,21.3052],[83.3165,21.3134],[83.2258,21.3093],[83.1433,21.2969],[83.0608,21.301],[83.0155,21.3217],[82.9783,21.3093],[82.8711,21.2928],[82.7804,21.2722],[82.7185,21.2763],[82.6525,21.2887],[82.5577,21.2598],[82.5082,21.2557],[82.4298,21.2268],[82.3391,21.2144],[82.3102,21.2268],[82.2607,21.2268],[82.2195,21.2144],[82.1576,21.2144],[82.1163,21.1979],[82.0792,21.1938],[82.0421,21.1773],[82.005,21.1814],[81.9637,21.2021],[81.8977,21.2186],[81.7616,21.2433],[81.6915,21.2392],[81.6503,21.2474]]},"properties":{"name":"","type":"Road"}},
{"type":"Feature","geometry":{"type":"LineString","coordinates":[[79.0973,21.1608],[79.188,21.1526],[79.3612,21.1484],[79.4313,21.1608],[79.5015,21.1649],[79.518,21.1567],[79.6458,21.1649],[79.7778,21.0989],[79.8397,21.0825],[79.918,21.0742],[79.9551,21.0783],[79.984,21.0907],[80.05,21.0948],[80.1242,21.0866],[80.1572,21.0907],[80.2397,21.0701],[80.2769,21.0742],[80.3181,21.066],[80.4006,21.0783],[80.4954,21.0866],[80.5161,21.0825],[80.5779,21.0907],[80.681,21.0742],[80.714,21.0907],[80.7553,21.0825],[80.846,21.0866],[80.9368,21.0989],[80.9904,21.0948],[81.0605,21.1031],[81.1347,21.1196],[81.2296,21.1608],[81.2832,21.1773],[81.341,21.2021],[81.4482,21.2144],[81.4853,21.2433],[81.5678,21.2598],[81.5925,21.2598],[81.6255,21.2392]]},"properties":{"name":"","type":"Road"}},
{"type":"Feature","geometry":{"type":"LineString","coordinates":[[77.9919,21.0495],[78.0125,21.066],[78.0909,21.0989],[78.1693,21.1031],[78.2105,21.1154],[78.2518,21.1072],[78.3136,21.1196],[78.3507,21.1361],[78.3672,21.1526],[78.4332,21.1732],[78.4539,21.1649],[78.4869,21.1691],[78.5157,21.1526],[78.5982,21.1608],[78.656,21.1443],[78.9364,21.1443],[78.9777,21.1484],[79.0643,21.1691],[79.0973,21.1608]]},"properties":{"name":"","type":"Road"}},
{"type":"Feature","geometry":{"type":"LineString","coordinates":[[74.3501,20.9793],[74.3171,20.9835],[74.2717,21.0082],[74.2181,21.0165],[74.1892,21.033],[74.1603,21.0618],[74.1273,21.1072],[74.1067,21.1113],[74.082,21.1402],[74.0284,21.1608],[73.9871,21.1649],[73.9665,21.1773],[73.9376,21.1649],[73.8757,21.1608],[73.8386,21.1732],[73.8056,21.1608],[73.7438,21.1856],[73.7108,21.1691],[73.6448,21.1814],[73.5829,21.1732],[73.521,21.1484],[73.4344,21.1319],[73.3561,21.1072],[73.2777,21.0948],[73.22,21.1113],[73.1663,21.1072],[73.1169,21.1154],[73.0715,21.1319],[73.0014,21.1649],[72.9642,21.1773]]},"properties":{"name":"","type":"Road"}},
{"type":"Feature","geometry":{"type":"LineString","coordinates":[[77.9919,21.0495],[77.9259,21.0206],[77.8187,21.0123],[77.8063,21.0041],[77.7651,20.9381]]},"properties":{"name":"","type":"Road"}},
{"type":"Feature","geometry":{"type":"LineString","coordinates":[[74.8326,21.2516],[74.8244,21.1814],[74.7914,21.1237],[74.7831,21.0825],[74.7831,21.0041],[74.7707,20.901]]},"properties":{"name":"","type":"Road"}},
{"type":"Feature","geometry":{"type":"LineString","coordinates":[[74.7707,20.901],[74.7584,20.8845]]},"properties":{"name":"","type":"Road"}},
{"type":"Feature","geometry":{"type":"LineString","coordinates":[[74.7584,20.8845],[74.7336,20.8927],[74.6759,20.8969],[74.548,20.9175],[74.4862,20.9422],[74.4614,20.9422],[74.4037,20.9711],[74.3501,20.9793]]},"properties":{"name":"","type":"Road"}},
{"type":"Feature","geometry":{"type":"LineString","coordinates":[[74.7707,20.901],[74.9398,20.8639],[75.0141,20.8515],[75.0677,20.8597],[75.1914,20.8886],[75.3275,20.9134],[75.3564,20.9505],[75.3894,20.9752],[75.4142,21.0082],[75.5173,21.0123],[75.608,21],[75.6822,21.0123],[75.7565,21.0495],[75.806,21.0536],[75.8761,21.0247],[75.9503,21.0082],[75.9792,21.0082],[76.0617,21.0412]]},"properties":{"name":"","type":"Road"}},
{"type":"Feature","geometry":{"type":"LineString","coordinates":[[77.7651,20.9381],[77.7445,20.9216],[77.7238,20.8432]]},"properties":{"name":"","type":"Road"}},
{"type":"Feature","geometry":{"type":"LineString","coordinates":[[77.7238,20.8432],[77.6413,20.802],[77.5217,20.7607],[77.4929,20.7566],[77.431,20.7319],[77.3856,20.7236],[77.3526,20.7278],[77.3155,20.703],[77.2784,20.6906],[77.2124,20.7071],[77.1588,20.7154],[77.0144,20.7113],[76.9319,20.6906],[76.8948,20.6741],[76.8247,20.6659],[76.7958,20.6741],[76.767,20.6576],[76.6597,20.6659],[76.5772,20.6865],[76.5525,20.7319],[76.4741,20.8144],[76.4576,20.8267],[76.3999,20.8226],[76.3133,20.8391],[76.2555,20.868],[76.2102,20.8845],[76.2019,20.901],[76.206,20.9381],[76.1978,20.9546],[76.1607,20.9876],[76.1359,21.0247],[76.1071,21.0412],[76.0617,21.0412]]},"properties":{"name":"","type":"Road"}},
{"type":"Feature","geometry":{"type":"LineString","coordinates":[[74.7584,20.8845],[74.7666,20.868],[74.7254,20.7649],[74.7006,20.7236],[74.6676,20.6535],[74.6181,20.6205],[74.5604,20.5751],[74.515,20.5463]]},"properties":{"name":"","type":"Road"}},
{"type":"Feature","geometry":{"type":"LineString","coordinates":[[84.0053,21.4537],[84.0095,21.4413],[84.0589,21.4],[84.0961,21.3547],[84.1456,21.2722],[84.1456,21.2433],[84.1662,21.2186],[84.1786,21.1814],[84.1827,21.1361],[84.2157,21.1154],[84.2445,21.1113],[84.2734,21.0866],[84.3188,21.0742],[84.4095,21.0783],[84.4549,21.0577],[84.4961,21.0165],[84.5704,20.9917],[84.5827,20.9793],[84.6364,20.9711],[84.6941,20.9505],[84.7354,20.9216],[84.8013,20.9134],[84.8673,20.8927],[84.9003,20.8639],[84.9498,20.8391],[85.0158,20.7979],[85.0323,20.8185],[85.0653,20.8226],[85.0942,20.8391],[85.2179,20.8432],[85.2468,20.835],[85.3416,20.7855],[85.4406,20.7607],[85.5314,20.6989],[85.5602,20.6948],[85.6221,20.637],[85.651,20.5999],[85.717,20.5587],[85.7582,20.5422],[85.8036,20.538],[85.8324,20.5174],[85.8489,20.4885],[85.8819,20.4638]]},"properties":{"name":"","type":"Road"}},
{"type":"Feature","geometry":{"type":"LineString","coordinates":[[77.7238,20.8432],[77.662,20.7442],[77.6537,20.7154],[77.596,20.6164],[77.563,20.5916],[77.5547,20.5587],[77.5341,20.5257],[77.5094,20.5092],[77.4805,20.4762],[77.4475,20.4638],[77.3898,20.4267],[77.3485,20.3607],[77.3155,20.2864],[77.3114,20.2576],[77.3238,20.2246],[77.3155,20.2081],[77.2578,20.1916],[77.1835,20.1173],[77.1299,20.105],[77.1423,20.0678],[77.1299,20.0431],[77.1423,20.0142],[77.1423,19.9771],[77.1547,19.94],[77.1588,19.8946],[77.1753,19.8245],[77.1712,19.7915],[77.1505,19.7668],[77.1423,19.7173],[77.1217,19.7049],[77.0804,19.6472],[77.0639,19.5812],[77.0392,19.5358]]},"properties":{"name":"","type":"Road"}},
{"type":"Feature","geometry":{"type":"LineString","coordinates":[[81.6255,21.2392],[81.6297,21.2309],[81.7039,21.2021],[81.7245,21.1856],[81.7534,21.1443],[81.7451,21.1154],[81.7534,21.0783],[81.7328,21.0453],[81.7245,21.0123],[81.6915,20.934],[81.6874,20.8886],[81.708,20.835],[81.7039,20.8185],[81.6585,20.769],[81.5802,20.7525],[81.5554,20.7154],[81.5059,20.67],[81.4688,20.6535],[81.4234,20.604],[81.3739,20.5628],[81.3657,20.5009],[81.3946,20.4597],[81.4069,20.4267],[81.4482,20.3731],[81.4771,20.2906],[81.5101,20.2534],[81.5059,20.204],[81.5224,20.1586],[81.5884,20.105],[81.5884,20.039],[81.6255,19.9606],[81.6338,19.9194],[81.6792,19.5894],[81.7204,19.5605],[81.7369,19.5399],[81.741,19.4945],[81.7575,19.4492],[81.7781,19.4244],[81.7823,19.3956],[81.8359,19.3461],[81.8483,19.3213],[81.9307,19.2347],[81.9472,19.2058],[81.9885,19.1687],[82.0256,19.1481],[82.0339,19.0862]]},"properties":{"name":"","type":"Road"}},
{"type":"Feature","geometry":{"type":"LineString","coordinates":[[72.8983,19.0656],[72.9271,19.1234],[72.9601,19.1728],[72.9849,19.2388],[73.0261,19.2883],[73.1004,19.3378],[73.2035,19.3832],[73.2653,19.4286],[73.3313,19.4616],[73.3602,19.5399],[73.3808,19.5605],[73.4056,19.6265],[73.4344,19.6472],[73.4633,19.643],[73.4922,19.6595],[73.5128,19.6925],[73.5788,19.7049],[73.6407,19.7296],[73.6613,19.7544],[73.6654,19.8121],[73.7149,19.9111],[73.7768,19.9771],[73.8221,20.0101],[73.8757,20.0348],[73.9129,20.0802],[73.9747,20.1421],[73.9912,20.171],[74.049,20.2204],[74.0943,20.2741],[74.1232,20.2947],[74.2552,20.3359],[74.3171,20.3813],[74.4202,20.4803],[74.4697,20.5092],[74.515,20.5463]]},"properties":{"name":"","type":"Road"}},
{"type":"Feature","geometry":{"type":"LineString","coordinates":[[72.89,19.0615],[72.8983,19.0656]]},"properties":{"name":"","type":"Road"}},
{"type":"Feature","geometry":{"type":"LineString","coordinates":[[72.8529,18.9749],[72.8529,19.0244],[72.89,19.0615]]},"properties":{"name":"","type":"Road"}},
{"type":"Feature","geometry":{"type":"LineString","coordinates":[[83.2877,18.4923],[83.2712,18.5047],[83.2299,18.5088],[83.1763,18.5253],[83.0732,18.5212],[83.0485,18.4964],[83.0155,18.5006],[82.9948,18.5459],[82.966,18.5666],[82.933,18.5666],[82.9,18.6037],[82.8876,18.6037],[82.8835,18.6573],[82.8299,18.748],[82.7969,18.7687],[82.7598,18.7728],[82.7144,18.8099],[82.6608,18.8264],[82.636,18.8181],[82.6154,18.8429],[82.5783,18.8553],[82.5659,18.8718],[82.5577,19.0491],[82.4958,19.1027],[82.4463,19.1234],[82.3679,19.1316],[82.3349,19.144],[82.3102,19.1398],[82.2277,19.0904],[82.17,19.0862],[82.0916,19.0739],[82.0339,19.0862]]},"properties":{"name":"","type":"Road"}},
{"type":"Feature","geometry":{"type":"LineString","coordinates":[[83.2877,18.4923],[83.3289,18.4469],[83.3248,18.3975],[83.3413,18.3603],[83.3372,18.2861],[83.3454,18.249],[83.3619,18.2201],[83.3825,18.1541],[83.4032,18.1252],[83.3949,18.0757],[83.4073,18.0345],[83.4114,17.985],[83.4238,17.9561]]},"properties":{"name":"","type":"Road"}},
{"type":"Feature","geometry":{"type":"LineString","coordinates":[[77.0309,19.4987],[76.9814,19.4533],[76.9608,19.3873],[76.9402,19.3378],[76.9443,19.3131],[76.9154,19.2842],[76.8618,19.2801],[76.8,19.2553],[76.7628,19.2595],[76.734,19.2388],[76.7257,19.2141],[76.7422,19.1728],[76.7257,19.0409],[76.7381,19.0079],[76.7381,18.9666],[76.602,18.9336],[76.5731,18.913],[76.5607,18.8924],[76.5319,18.8759],[76.536,18.8388],[76.4865,18.8264],[76.4783,18.7975],[76.4618,18.7851],[76.437,18.7315],[76.3958,18.7274],[76.3669,18.7068],[76.338,18.6985],[76.305,18.6738],[76.2638,18.6573],[76.1648,18.6367],[76.1153,18.6325],[76.0534,18.6119],[75.9256,18.4799],[75.8802,18.4181],[75.872,18.3892],[75.9338,18.3645],[75.9503,18.3191],[75.9875,18.3026],[76.0122,18.282],[76.0328,18.2448],[76.0411,18.183],[76.0823,18.0757],[76.0823,18.0634],[76.0493,17.9974],[76.0122,17.9355],[75.9875,17.9066],[75.9627,17.8407],[75.9586,17.7912],[75.9462,17.7499],[75.905,17.6963],[75.8967,17.6757]]},"properties":{"name":"","type":"Road"}},
{"type":"Feature","geometry":{"type":"LineString","coordinates":[[73.8592,18.4964],[73.9789,18.4964],[74.049,18.4799],[74.1892,18.4882],[74.2593,18.4841],[74.3047,18.4717],[74.4408,18.4428],[74.4862,18.4098],[74.515,18.3975],[74.581,18.381],[74.6594,18.3438],[74.7254,18.3273],[74.7707,18.3067],[74.7914,18.2861],[74.8161,18.2448],[74.8532,18.2242],[74.9069,18.2119],[74.9357,18.1912],[74.9852,18.1417],[75.0718,18.084],[75.1254,18.0551],[75.1791,18.0386],[75.2203,18.0139],[75.2863,17.9891],[75.3688,17.9314],[75.4059,17.9149],[75.5173,17.8489],[75.5585,17.8365],[75.6121,17.8283],[75.6492,17.8035],[75.7235,17.7747],[75.8431,17.7169],[75.8802,17.6963],[75.8967,17.6757]]},"properties":{"name":"","type":"Road"}},
{"type":"Feature","geometry":{"type":"LineString","coordinates":[[78.4827,17.4695],[78.3961,17.4901],[78.3342,17.4942],[78.2765,17.5272],[78.2023,17.5519],[78.1486,17.5767],[78.1074,17.5849],[78.0084,17.6138],[77.996,17.6014],[77.8929,17.6303],[77.7651,17.6509],[77.6042,17.6798],[77.5465,17.6963],[77.4557,17.6922],[77.3898,17.721],[77.3444,17.7293],[77.2701,17.7623],[77.1877,17.754],[77.1217,17.7705],[77.0763,17.7705],[76.9897,17.8077],[76.9196,17.82],[76.8783,17.8324],[76.833,17.8365],[76.7505,17.82],[76.6639,17.8283],[76.503,17.8572],[76.4535,17.853],[76.3298,17.82],[76.2844,17.8159],[76.2514,17.82],[76.2225,17.8118],[76.1648,17.7747],[76.0782,17.7582],[75.9957,17.7046],[75.9215,17.6716],[75.8967,17.6757]]},"properties":{"name":"","type":"Road"}},
{"type":"Feature","geometry":{"type":"LineString","coordinates":[[78.4827,17.4695],[78.5075,17.4406],[78.4869,17.387]]},"properties":{"name":"","type":"Road"}},
{"type":"Feature","geometry":{"type":"LineString","coordinates":[[73.1334,18.9666],[73.1292,18.9171],[73.0962,18.8676],[73.088,18.7975],[73.0962,18.7315],[73.055,18.7027],[73.0921,18.6202],[73.1251,18.5872],[73.1334,18.5459],[73.1952,18.4758],[73.2365,18.348],[73.2365,18.3026],[73.3148,18.1954],[73.3272,18.1211],[73.3478,18.1005],[73.3891,18.0881],[73.4592,18.1005],[73.4633,18.0428],[73.4427,17.9355],[73.4303,17.9231],[73.4303,17.8737],[73.4179,17.8572],[73.4014,17.8035],[73.4179,17.7252],[73.3932,17.7128],[73.4014,17.6922],[73.4344,17.6592],[73.5087,17.5354],[73.5087,17.486],[73.5334,17.4076],[73.521,17.3375],[73.5293,17.2839],[73.5499,17.255],[73.5458,17.1807],[73.521,17.1643],[73.4922,17.1601],[73.4839,17.1313],[73.4633,17.1189],[73.4468,17.0653],[73.4138,17.0405],[73.4179,17.0075],[73.4963,16.9828]]},"properties":{"name":"","type":"Road"}},
{"type":"Feature","geometry":{"type":"LineString","coordinates":[[78.4869,17.387],[78.5363,17.3663],[78.6106,17.3251],[78.6724,17.321],[78.7838,17.2839],[78.8869,17.2591],[78.9405,17.2385],[79.056,17.2261],[79.1179,17.2261],[79.1798,17.2179],[79.2127,17.2014],[79.3282,17.1601],[79.4272,17.1643],[79.4685,17.156],[79.5551,17.1601],[79.6046,17.1395],[79.6293,17.1395],[79.6582,17.1189],[79.6994,17.1148],[79.7654,17.0983],[79.7943,17.0859],[79.8479,17.0446],[79.8603,17.0446],[79.8974,17.0158],[79.9551,17.0116],[79.9923,16.9828],[80.0871,16.9209],[80.1449,16.892]]},"properties":{"name":"","type":"Road"}},
{"type":"Feature","geometry":{"type":"LineString","coordinates":[[80.1449,16.892],[80.2315,16.8302],[80.2769,16.7931],[80.314,16.7312],[80.3758,16.6941],[80.4047,16.6652],[80.4789,16.6075],[80.5202,16.591],[80.6233,16.5167]]},"properties":{"name":"","type":"Road"}},
{"type":"Feature","geometry":{"type":"LineString","coordinates":[[80.6233,16.5167],[80.6357,16.5167]]},"properties":{"name":"","type":"Road"}},
{"type":"Feature","geometry":{"type":"LineString","coordinates":[[73.8345,15.498],[73.8139,15.5434],[73.8098,15.5681],[73.8304,15.6258],[73.851,15.6588],[73.7933,15.7496],[73.7479,15.7784],[73.686,15.7702],[73.6572,15.7991],[73.6324,15.8486],[73.6819,15.9104],[73.6819,15.964],[73.7066,16.0672],[73.7108,16.1001],[73.7025,16.1373],[73.6819,16.162],[73.7025,16.2074],[73.7066,16.3435],[73.6901,16.3889],[73.653,16.4631],[73.6365,16.5415],[73.6077,16.5786],[73.5747,16.5868],[73.554,16.6033],[73.5293,16.6446],[73.5293,16.6693],[73.5788,16.7271],[73.587,16.7559],[73.5582,16.8137],[73.5458,16.8797],[73.5128,16.9333],[73.5128,16.9622],[73.4963,16.9828]]},"properties":{"name":"","type":"Road"}},
{"type":"Feature","geometry":{"type":"LineString","coordinates":[[73.8345,15.498],[73.8675,15.4567],[73.9005,15.4402],[73.9046,15.4155]]},"properties":{"name":"","type":"Road"}},
{"type":"Feature","geometry":{"type":"MultiLineString","coordinates":[[[74.4408,14.2854],[74.4243,14.3638],[74.4037,14.4215],[74.4284,14.4421],[74.4243,14.4751],[74.3789,14.5906],[74.3088,14.6607],[74.3088,14.6896],[74.2799,14.7391],[74.1933,14.7762],[74.1603,14.7762],[74.1195,14.7966]],[[74.1196,14.7977],[74.1315,14.8175],[74.1315,14.8587],[74.1067,14.9082],[74.0572,14.9453],[74.0325,15.0113],[74.0325,15.0814],[74.0242,15.1433],[73.9995,15.1763],[73.9706,15.2505],[73.9335,15.3248],[73.917,15.399]]]},"properties":{"name":"","type":"Road"}},
{"type":"Feature","geometry":{"type":"LineString","coordinates":[[74.7501,13.345],[74.7501,13.3657],[74.7089,13.4853],[74.6924,13.6255],[74.6718,13.6461],[74.647,13.708],[74.6346,13.8441],[74.5975,13.9266],[74.5027,14.0792],[74.4944,14.1163],[74.5027,14.1493],[74.482,14.2029],[74.449,14.24],[74.4408,14.2854]]},"properties":{"name":"","type":"Road"}},
{"type":"Feature","geometry":{"type":"LineString","coordinates":[[77.5919,12.9656],[77.6372,12.9945],[77.7115,13.0275],[77.8228,13.0893],[77.9177,13.1306],[77.9672,13.1429],[78.0785,13.1306],[78.1074,13.1306],[78.3013,13.1594],[78.3879,13.1677],[78.4291,13.1883],[78.4704,13.2007],[78.5817,13.1966],[78.623,13.1842],[78.7013,13.1966],[78.7219,13.2048],[78.7962,13.2048],[78.858,13.1883],[78.9282,13.2048],[79.0766,13.1966],[79.0973,13.2131],[79.1138,13.1141],[79.1385,13.0769],[79.1963,13.0398]]},"properties":{"name":"","type":"Road"}},
{"type":"Feature","geometry":{"type":"LineString","coordinates":[[74.7501,13.345],[74.7419,13.312],[74.7501,13.2955],[74.7419,13.2543],[74.7707,13.1347],[74.7955,13.0687],[74.7955,13.0151],[74.8202,12.9367],[74.8326,12.9243],[74.8409,12.8584]]},"properties":{"name":"","type":"Road"}},
{"type":"Feature","geometry":{"type":"LineString","coordinates":[[77.3856,13.1058],[77.3568,13.0728],[77.2743,13.0646],[77.2083,13.0728],[77.134,13.044],[77.0722,13.0275],[76.9814,13.0192],[76.8247,12.9697],[76.7793,12.9656],[76.7546,12.9491],[76.6969,12.9656],[76.6185,12.9491],[76.5731,12.9491],[76.5319,12.9285],[76.4081,12.8913],[76.3793,12.8955],[76.3628,12.9326],[76.3174,12.9656],[76.2225,12.9738],[76.1236,12.9945],[76.0576,12.9862],[75.9545,12.945],[75.8967,12.9367],[75.8472,12.9491],[75.7771,12.9243],[75.7317,12.8913],[75.707,12.8584],[75.6657,12.8254],[75.5214,12.8254],[75.4925,12.8295],[75.4513,12.8171],[75.3523,12.8377],[75.3275,12.8377],[75.1584,12.8171],[75.0842,12.8336],[75.0306,12.8749],[75.0017,12.8707],[74.9398,12.8831],[74.8821,12.8749],[74.8409,12.8584]]},"properties":{"name":"","type":"Road"}},
{"type":"Feature","geometry":{"type":"LineString","coordinates":[[77.5919,12.9656],[77.4516,12.8872],[77.3939,12.8006],[77.3279,12.78],[77.2578,12.7264],[77.2207,12.6604],[77.1547,12.6274],[77.0557,12.5903],[76.9856,12.549],[76.9443,12.5325],[76.8165,12.4913],[76.7752,12.483],[76.7505,12.4665],[76.7051,12.4212],[76.6762,12.4129],[76.6639,12.3964],[76.6432,12.3222],[76.6061,12.3263],[76.5278,12.3511],[76.4865,12.3304],[76.4288,12.3428],[76.3999,12.3346],[76.3133,12.2974],[76.2885,12.2974],[76.2432,12.3139]]},"properties":{"name":"","type":"Road"}},
{"type":"Feature","geometry":{"type":"LineString","coordinates":[[76.2432,12.3139],[76.173,12.2933],[76.1524,12.2933],[76.0369,12.2314],[75.9875,12.2149],[75.9503,12.1902],[75.9173,12.1819],[75.7977,12.1902],[75.7895,12.1201]]},"properties":{"name":"","type":"Road"}},
{"type":"Feature","geometry":{"type":"LineString","coordinates":[[75.7895,12.1201],[75.7235,12.0706],[75.7152,12.0376],[75.6946,12.0211],[75.6781,11.9881]]},"properties":{"name":"","type":"Road"}},
{"type":"Feature","geometry":{"type":"LineString","coordinates":[[74.8409,12.8584],[74.8409,12.8212],[74.8739,12.78],[74.9151,12.6934],[74.9234,12.6645],[74.9522,12.6109],[74.9563,12.5779],[74.9893,12.5325],[75.01,12.4707],[75.0636,12.3964],[75.1089,12.3139],[75.1089,12.2686],[75.1502,12.2521],[75.1708,12.1984],[75.2038,12.1655],[75.2286,12.1077],[75.2492,12.0871],[75.344,12.05],[75.3647,12.0335],[75.3729,12.0046],[75.344,11.9427]]},"properties":{"name":"","type":"Road"}},
{"type":"Feature","geometry":{"type":"LineString","coordinates":[[75.6781,11.9881],[75.6039,11.9881],[75.5544,11.9799],[75.5131,11.9345],[75.509,11.9221],[75.4678,11.9097],[75.4595,11.8974],[75.4224,11.8891],[75.4059,11.8767]]},"properties":{"name":"","type":"Road"}},
{"type":"Feature","geometry":{"type":"LineString","coordinates":[[80.2521,13.0605],[80.248,13.0233],[80.2315,13.011],[80.1944,13.0027],[80.1284,12.9408],[80.0871,12.8749],[80.0335,12.8006],[79.9881,12.7264],[79.9799,12.6769],[79.9428,12.6398],[79.9057,12.549],[79.8562,12.4872],[79.8355,12.4542],[79.819,12.4088],[79.786,12.3717],[79.7778,12.3139],[79.7448,12.2933],[79.6582,12.2273],[79.6252,12.1778],[79.5963,12.1242],[79.5592,12.0747],[79.5386,12.0087],[79.4891,11.9427],[79.4313,11.8479],[79.3942,11.7736],[79.3571,11.7283],[79.3076,11.6911],[79.188,11.6252],[79.1385,11.5509],[79.1055,11.5138],[79.0313,11.4519],[78.9942,11.3983],[78.9323,11.3199],[78.9075,11.2828],[78.8828,11.2003],[78.8416,11.1302],[78.8044,11.023],[78.7508,10.9281],[78.7219,10.8951],[78.6972,10.8456],[78.7054,10.7961],[78.656,10.7879],[78.5941,10.7425],[78.557,10.7219],[78.5198,10.6807],[78.4662,10.6394],[78.359,10.5775]]},"properties":{"name":"","type":"Road"}},
{"type":"Feature","geometry":{"type":"LineString","coordinates":[[78.1528,11.6664],[78.1404,11.6334],[78.1239,11.6169],[78.0785,11.5963],[78.0167,11.5385],[77.9466,11.5179],[77.8888,11.4849],[77.7775,11.3901],[77.7321,11.3406],[77.6785,11.3158],[77.6702,11.2993],[77.6125,11.2828],[77.5259,11.2416],[77.4764,11.2292],[77.431,11.2003],[77.365,11.2045],[77.2949,11.1962],[77.266,11.188],[77.2248,11.155],[77.1877,11.1137],[77.0969,11.0601],[76.9649,10.9941],[76.9567,10.9405],[76.9319,10.8869],[76.9113,10.8663],[76.866,10.8456],[76.8247,10.8126],[76.7793,10.792],[76.734,10.7838],[76.7051,10.7673],[76.6639,10.7631],[76.6226,10.7343],[76.5772,10.66],[76.5566,10.594],[76.4246,10.5734],[76.3958,10.5734],[76.3545,10.5569],[76.272,10.5322],[76.2349,10.5074]]},"properties":{"name":"","type":"Road"}},
{"type":"Feature","geometry":{"type":"LineString","coordinates":[[75.4059,11.8767],[75.4595,11.8025],[75.4636,11.7778],[75.5255,11.7324],[75.5379,11.6953],[75.5709,11.6623],[75.5874,11.6045],[75.6121,11.5715],[75.6245,11.5097],[75.6864,11.4684],[75.7029,11.4354],[75.7565,11.3571],[75.7771,11.2663],[75.7977,11.2168],[75.8019,11.1715],[75.839,11.1343],[75.8513,11.1055],[75.8637,11.0395],[75.8926,11.0106],[75.905,10.9776],[75.9173,10.9116],[75.9338,10.8828],[75.9503,10.8291],[75.9751,10.7879],[76.0122,10.7755],[76.0699,10.7796],[76.1153,10.7549],[76.0988,10.6848],[76.0823,10.6477],[76.0906,10.6312],[76.1401,10.6064],[76.1689,10.5652],[76.2143,10.5322],[76.2349,10.5074]]},"properties":{"name":"","type":"Road"}},
{"type":"Feature","geometry":{"type":"LineString","coordinates":[[78.359,10.5775],[78.3136,10.5487],[78.2476,10.5281],[78.1858,10.4868],[78.161,10.4868],[78.0868,10.4249],[78.0497,10.4002],[77.9713,10.3631]]},"properties":{"name":"","type":"Road"}},
{"type":"Feature","geometry":{"type":"MultiLineString","coordinates":[[[78.1322,9.9218],[78.2311,9.8599],[78.26,9.831],[78.3013,9.8022],[78.359,9.7733],[78.4291,9.7279],[78.4827,9.6702],[78.5157,9.6454],[78.524,9.6124],[78.5652,9.5629],[78.5941,9.5464],[78.6147,9.5176],[78.6436,9.5011],[78.6724,9.4598],[78.6724,9.4268],[78.7137,9.4145],[78.7714,9.3732],[78.891,9.3443],[78.957,9.3072],[79.0601,9.2701],[79.0927,9.2636]],[[79.1447,9.2732],[79.1725,9.2784]],[[79.1958,9.2784],[79.3047,9.2552]]]},"properties":{"name":"","type":"Road"}},
{"type":"Feature","geometry":{"type":"MultiLineString","coordinates":[[[77.4269,8.1771],[77.3815,8.2019],[77.3568,8.2266],[77.3279,8.239],[77.2784,8.2802],[77.2124,8.3132],[77.1753,8.3215],[77.1505,8.3545],[77.0969,8.3999],[77.0474,8.4287],[76.9526,8.4906],[76.9361,8.5236],[76.866,8.5813],[76.8536,8.602],[76.8371,8.6679],[76.8123,8.6968],[76.8,8.7463],[76.7835,8.7793],[76.734,8.8494],[76.7092,8.8618],[76.6515,8.87],[76.5566,8.9072],[76.5409,8.9281]],[[76.5308,8.9657],[76.5442,9.0103],[76.5401,9.0433],[76.5154,9.1381],[76.47,9.266],[76.4453,9.2866],[76.437,9.3155],[76.4081,9.3732],[76.3586,9.3856],[76.3257,9.5382],[76.338,9.6825],[76.3215,9.6949],[76.3009,9.8846],[76.2679,9.9465],[76.3339,10.0496],[76.3628,10.1527],[76.3875,10.1775],[76.3751,10.2393],[76.3463,10.2765],[76.3174,10.359],[76.2927,10.3878],[76.2597,10.4497],[76.2349,10.5074]]]},"properties":{"name":"","type":"Road"}}
]}